SAUDISAT 1C (SO-50)     
1 27607U 02058C   26186.29437210  .00001271  00000+0  16659-3 0  9998
2 27607  64.5520  72.9616 0074804 259.0885 100.1798 14.83086679267145
SAUDISAT 2              
1 28371U 04025F   26186.23156407  .00000359  00000+0  91113-4 0  9998
2 28371  98.5513 186.6801 0023586 239.9733 119.9124 14.56694803168372
SAUDISAT 3              
1 31118U 07012B   26185.80320751  .00000427  00000+0  77061-4 0  9999
2 31118  98.1462 136.2161 0014887 166.2917 193.8697 14.71436735 30339
PISAT                   
1 41784U 16059B   26186.46694014  .00001282  00000+0  22510-3 0  9997
2 41784  97.8184 186.1346 0029856 144.6576 215.6617 14.69018347522421
FLYING LAPTOP           
1 42831U 17042G   26186.64897748  .00004016  00000+0  31558-3 0  9993
2 42831  97.4777 341.4815 0019960  62.8836 297.4422 15.01269508489227
SALSAT                  
1 46495U 20068K   26186.45874269  .00010448  00000+0  36136-3 0  9990
2 46495  97.8857 190.6390 0008285 230.3359 129.7150 15.30074171318152
